<?xml version="1.0" encoding="UTF-8"?><kml xmlns="http://www.opengis.net/kml/2.2"><Document><name>Elmwood map audit - OSM and USGS</name><Style id="path"><LineStyle><color>ff44ffff</color><width>3</width></LineStyle></Style><Style id="building"><LineStyle><color>ff5599ff</color><width>4</width></LineStyle></Style><Style id="water"><LineStyle><color>ffffcc33</color><width>3</width></LineStyle></Style><Placemark><name>path 59197464</name><description>OSM mapped geometry; not surveyed</description><styleUrl>#path</styleUrl><LineString><tessellate>1</tessellate><altitudeMode>clampToGround</altitudeMode><coordinates>-83.021915098,42.352463400,0 -83.021860101,42.352410102,0 -83.021837402,42.352377704,0 -83.021824106,42.352348499,0 -83.021818903,42.352321800,0 -83.021818503,42.352290404,0 -83.021824898,42.352259997,0 -83.021840295,42.352228998,0 -83.021868705,42.352182802,0 -83.021893195,42.352149500,0 -83.021968905,42.352080902,0 -83.022007706,42.352036900,0 -83.022023701,42.352008295,0 -83.022034306,42.351983100,0 -83.022045004,42.351954003,0 -83.022067601,42.351923400,0 -83.022132097,42.351834502,0 -83.022147101,42.351801097,0 -83.022154795,42.351774503,0 -83.022150506,42.351747904,0 -83.022141902,42.351716599,0 -83.022124700,42.351687500,0 -83.022107298,42.351666202,0 -83.022084506,42.351649800,0 -83.022047104,42.351634799,0 -83.022001806,42.351622702,0 -83.021943799,42.351615603,0 -83.021867100,42.351617397,0 -83.021808097,42.351615196,0 -83.021758594,42.351604101,0 -83.021706002,42.351587900,0 -83.021675000,42.351566896,0 -83.021652105,42.351543904,0 -83.021634203,42.351515302,0 -83.021619901,42.351462296,0 -83.021595402,42.351381299,0 -83.021529204,42.351193295,0 -83.021493603,42.351066701,0 -83.021483799,42.351036201,0 -83.021488101,42.351015503,0 -83.021500404,42.350994798,0 -83.021574396,42.350940396,0 -83.021626198,42.350901299,0 -83.021665899,42.350864198,0 -83.021693395,42.350828501,0 -83.021716605,42.350790898,0 -83.021727696,42.350753203,0 -83.021727899,42.350709199,0 -83.021718700,42.350668403,0 -83.021696599,42.350623198,0 -83.021659795,42.350565104,0 -83.021607396,42.350501503,0 -83.021526895,42.350419099,0 -83.021432900,42.350331601,0 -83.021228799,42.350182304,0 -83.021180894,42.350152097,0 -83.021134296,42.350125902,0 -83.021081503,42.350109101,0 -83.021013298,42.350097399,0 -83.020914506,42.350097700,0 -83.020740795,42.350109805,0 -83.020596802,42.350129796,0 -83.020266194,42.350154004,0 -83.019727997,42.350120803,0 -83.019298900,42.350081202,0 -83.018638202,42.349964898,0 -83.018347399,42.349874002,0 -83.018245695,42.349717700,0 -83.018116898,42.349526996,0 -83.017998597,42.349366798,0 -83.017966696,42.349191300,0 -83.017658902,42.348766504,0 -83.017671398,42.348586001,0 -83.017591995,42.348403703,0 -83.017456894,42.348278796,0 -83.017260401,42.348178204,0 -83.016981497,42.347765901,0 -83.016603806,42.347228501,0 -83.016589903,42.347148704,0</coordinates></LineString></Placemark><Placemark><name>path 59197465</name><description>OSM mapped geometry; not surveyed</description><styleUrl>#path</styleUrl><LineString><tessellate>1</tessellate><altitudeMode>clampToGround</altitudeMode><coordinates>-83.022159501,42.350778996,0 -83.022284902,42.350756197,0 -83.022410301,42.350723501,0 -83.022517800,42.350688400,0 -83.022609196,42.350649396,0 -83.022671305,42.350620896,0 -83.022732794,42.350586301,0 -83.022788894,42.350545704,0 -83.022850103,42.350516004,0 -83.022911206,42.350500796,0 -83.022977597,42.350491501,0 -83.023058198,42.350495203,0 -83.023124106,42.350504900,0 -83.023177996,42.350522203,0 -83.023224301,42.350542999,0 -83.023255699,42.350566904,0 -83.023282997,42.350594700,0 -83.023300196,42.350628599,0 -83.023299898,42.350659800,0 -83.023288895,42.350691099,0 -83.023249802,42.350802000,0 -83.023191094,42.351006896,0 -83.023183296,42.351052196,0 -83.023178603,42.351101198,0 -83.023187401,42.351149096,0 -83.023201599,42.351202996,0 -83.023235397,42.351304703,0 -83.023251604,42.351368996,0 -83.023251805,42.351397603,0 -83.023243400,42.351422103,0 -83.023226904,42.351448699,0 -83.023202000,42.351475102,0 -83.023165598,42.351503004,0 -83.023118804,42.351531297,0 -83.023077401,42.351554704,0 -83.023033498,42.351582298,0 -83.022991002,42.351612901,0 -83.022935505,42.351660197,0 -83.022891898,42.351706499,0 -83.022839002,42.351776604,0 -83.022815600,42.351800999,0 -83.022788203,42.351818602,0 -83.022752097,42.351831901,0 -83.022712195,42.351836604,0 -83.022679299,42.351831898,0 -83.022647806,42.351818297,0 -83.022622206,42.351795001,0 -83.022603995,42.351771197,0 -83.022561694,42.351690902,0 -83.022522798,42.351652801,0 -83.022470502,42.351630697,0</coordinates></LineString></Placemark><Placemark><name>path 59197467</name><description>OSM mapped geometry; not surveyed</description><styleUrl>#path</styleUrl><LineString><tessellate>1</tessellate><altitudeMode>clampToGround</altitudeMode><coordinates>-83.019397795,42.347135901,0 -83.019428295,42.347161804,0 -83.019464101,42.347184704,0 -83.019521694,42.347211598,0 -83.019631498,42.347250504,0 -83.019790996,42.347298998,0 -83.019921197,42.347353502,0 -83.020181004,42.347544299,0 -83.020405101,42.347752701,0 -83.020865299,42.348344702,0 -83.021130699,42.348695401,0 -83.021327399,42.348827196,0 -83.021504299,42.348985501,0 -83.021621297,42.349074502,0 -83.021770097,42.349184096,0 -83.022000602,42.349435996,0 -83.022088102,42.349507604,0 -83.022131897,42.349552796,0 -83.022195701,42.349674102,0 -83.022223797,42.349760105,0 -83.022238997,42.349800596,0 -83.022258102,42.349835299,0 -83.022285797,42.349864898,0 -83.022321200,42.349895199,0 -83.022368804,42.349925500,0 -83.022431700,42.349964303,0 -83.022475900,42.349998996,0 -83.022528101,42.350049596,0 -83.022579101,42.350119903,0 -83.022619397,42.350192200,0 -83.022721394,42.350378500,0 -83.022744496,42.350414403,0 -83.022785101,42.350456202,0 -83.022850103,42.350516004,0</coordinates></LineString></Placemark><Placemark><name>path 59197468</name><description>OSM mapped geometry; not surveyed</description><styleUrl>#path</styleUrl><LineString><tessellate>1</tessellate><altitudeMode>clampToGround</altitudeMode><coordinates>-83.017260401,42.348178204,0 -83.017260398,42.348416104,0 -83.017299001,42.348534398,0 -83.017449804,42.348667800,0 -83.017658902,42.348766504,0</coordinates></LineString></Placemark><Placemark><name>path 59197469</name><description>OSM mapped geometry; not surveyed</description><styleUrl>#path</styleUrl><LineString><tessellate>1</tessellate><altitudeMode>clampToGround</altitudeMode><coordinates>-83.017747504,42.347508997,0 -83.016981497,42.347765901,0 -83.016297497,42.348018799,0</coordinates></LineString></Placemark><Placemark><name>path 59197492</name><description>OSM mapped geometry; not surveyed</description><styleUrl>#path</styleUrl><LineString><tessellate>1</tessellate><altitudeMode>clampToGround</altitudeMode><coordinates>-83.018091502,42.345629903,0 -83.018081705,42.345655300,0 -83.018078700,42.345686602,0 -83.018081898,42.345717498,0 -83.018091196,42.345856696,0 -83.018085496,42.345950599,0 -83.018150902,42.346409903,0 -83.018332500,42.346807301,0 -83.018587696,42.347058701,0 -83.018654205,42.347125999,0 -83.018704101,42.347188196,0 -83.018746197,42.347253997,0 -83.018787196,42.347336702,0 -83.018830200,42.347393698,0 -83.018869505,42.347429199,0 -83.018916797,42.347459696,0 -83.018973999,42.347491100,0 -83.019269394,42.347622205,0 -83.019358802,42.347666000,0 -83.019432103,42.347706899,0 -83.019492295,42.347743302,0 -83.019547196,42.347782797,0 -83.019617105,42.347836400,0 -83.019733203,42.347935703,0 -83.019769905,42.347980499,0</coordinates></LineString></Placemark><Placemark><name>path 59197503</name><description>OSM mapped geometry; not surveyed</description><styleUrl>#path</styleUrl><LineString><tessellate>1</tessellate><altitudeMode>clampToGround</altitudeMode><coordinates>-83.018347399,42.349874002,0 -83.018388296,42.350080203,0 -83.018392298,42.350134697,0 -83.018395205,42.350240696,0 -83.018394098,42.350330897,0 -83.018392000,42.350405303,0 -83.018386298,42.350457798,0 -83.018374196,42.350512098,0 -83.018352104,42.350568403,0 -83.018287698,42.350690203,0 -83.018241596,42.350781899,0 -83.018210894,42.350880997,0 -83.018197906,42.350935701,0 -83.018194306,42.350959404,0 -83.018194801,42.350983998,0 -83.018197799,42.351008999,0 -83.018204799,42.351035001,0 -83.018218999,42.351070503,0 -83.018237303,42.351102997,0 -83.018333000,42.351292699,0 -83.018633204,42.351730901,0 -83.018874102,42.351983299,0 -83.019105796,42.352158600,0 -83.019397803,42.352236298,0 -83.019704306,42.352256698,0 -83.021652105,42.351543904,0</coordinates></LineString></Placemark><Placemark><name>path 59197509</name><description>OSM mapped geometry; not surveyed</description><styleUrl>#path</styleUrl><LineString><tessellate>1</tessellate><altitudeMode>clampToGround</altitudeMode><coordinates>-83.020007002,42.352650203,0 -83.021891704,42.351936400,0 -83.021980299,42.351914097,0 -83.022029996,42.351912302,0 -83.022067601,42.351923400,0</coordinates></LineString></Placemark><Placemark><name>path 59197516</name><description>OSM mapped geometry; not surveyed</description><styleUrl>#path</styleUrl><LineString><tessellate>1</tessellate><altitudeMode>clampToGround</altitudeMode><coordinates>-83.016356697,42.347108697,0 -83.016306603,42.347159100,0 -83.016204803,42.347439596,0 -83.016187506,42.347623101,0 -83.016175002,42.347843400,0</coordinates></LineString></Placemark><Placemark><name>path 59197519</name><description>OSM mapped geometry; not surveyed</description><styleUrl>#path</styleUrl><LineString><tessellate>1</tessellate><altitudeMode>clampToGround</altitudeMode><coordinates>-83.016685103,42.346220299,0 -83.017153095,42.346425802,0 -83.017316197,42.346565103,0 -83.017423901,42.346728199,0 -83.017560802,42.347131500,0 -83.017747504,42.347508997,0 -83.018054300,42.347868998,0 -83.018285698,42.348068999,0 -83.018471002,42.348127199,0 -83.018766501,42.348179198,0 -83.019309599,42.348320898,0 -83.019411903,42.348362097,0 -83.019484105,42.348410698,0 -83.019553604,42.348478402,0 -83.019682295,42.348695700,0 -83.019693200,42.348789400,0 -83.019654103,42.348879496,0 -83.019519303,42.348941200,0 -83.019369403,42.348984403,0 -83.019144699,42.348995197,0 -83.018854900,42.349035297,0 -83.018689799,42.349069401,0 -83.018363698,42.349136796,0 -83.017966696,42.349191300,0 -83.017459002,42.349133299,0 -83.017056596,42.349050398,0 -83.016866401,42.348908404,0 -83.016637104,42.348599800,0 -83.016412797,42.348225800,0 -83.016297497,42.348018799,0 -83.016262596,42.347956203,0 -83.016175002,42.347843400,0 -83.015987703,42.347624698,0 -83.015597405,42.347044298,0 -83.015479405,42.346846098,0 -83.015479400,42.346616104,0 -83.015580705,42.346496304,0 -83.015693996,42.346394098,0 -83.015850002,42.346286403,0 -83.015944502,42.346244702,0 -83.016198304,42.346148299,0 -83.016430496,42.346093297,0 -83.016656899,42.346059604,0</coordinates></LineString></Placemark><Placemark><name>path 59197520</name><description>OSM mapped geometry; not surveyed</description><styleUrl>#path</styleUrl><LineString><tessellate>1</tessellate><altitudeMode>clampToGround</altitudeMode><coordinates>-83.017591995,42.348403703,0 -83.018260704,42.348151804,0 -83.018285698,42.348068999,0 -83.018347397,42.347963600,0 -83.018443800,42.347895198,0 -83.018552800,42.347763697,0 -83.018687300,42.347545897,0 -83.018711504,42.347506701,0</coordinates></LineString></Placemark><Placemark><name>path 59197521</name><description>OSM mapped geometry; not surveyed</description><styleUrl>#path</styleUrl><LineString><tessellate>1</tessellate><altitudeMode>clampToGround</altitudeMode><coordinates>-83.018874102,42.351983299,0 -83.020603699,42.351359000,0 -83.020713106,42.351316303,0 -83.020813397,42.351282403,0 -83.020955198,42.351232596,0 -83.021061197,42.351188500,0 -83.021176496,42.351139503,0 -83.021325200,42.351090303,0 -83.021408200,42.351071900,0 -83.021493603,42.351066701,0 -83.021595195,42.351057102,0 -83.021696800,42.351037704,0 -83.021864400,42.350998500,0 -83.022037395,42.350955301,0 -83.022185005,42.350921600,0</coordinates></LineString></Placemark><Placemark><name>path 59197523</name><description>OSM mapped geometry; not surveyed</description><styleUrl>#path</styleUrl><LineString><tessellate>1</tessellate><altitudeMode>clampToGround</altitudeMode><coordinates>-83.021504299,42.348985501,0 -83.021487594,42.349224903,0 -83.021423200,42.349438904,0 -83.021251503,42.349597504,0 -83.020959098,42.349821496,0 -83.020880000,42.349888902,0 -83.020805700,42.349965102,0 -83.020784001,42.349995302,0 -83.020753001,42.350051602,0 -83.020740795,42.350109805,0 -83.020744797,42.350159697,0 -83.020740796,42.350205696,0 -83.020729995,42.350255102,0 -83.020680196,42.350398403,0 -83.020669296,42.350478799,0 -83.020657403,42.350569902,0 -83.020650998,42.350628804,0 -83.020651202,42.350682897,0 -83.020662394,42.350739300,0 -83.020679604,42.350794804,0 -83.020711101,42.350858197,0 -83.020736603,42.350897399,0 -83.020768706,42.350934603,0 -83.020811602,42.350973300,0 -83.020857096,42.351005197,0 -83.020900902,42.351030604,0 -83.020956703,42.351052998,0 -83.021025399,42.351073896,0 -83.021072202,42.351087903,0 -83.021110705,42.351099003,0 -83.021135702,42.351109198,0 -83.021160201,42.351122400,0 -83.021176496,42.351139503,0</coordinates></LineString></Placemark><Placemark><name>path 59197530</name><description>OSM mapped geometry; not surveyed</description><styleUrl>#path</styleUrl><LineString><tessellate>1</tessellate><altitudeMode>clampToGround</altitudeMode><coordinates>-83.017056596,42.349050398,0 -83.017048205,42.349132704,0 -83.017054703,42.349221601,0 -83.017104901,42.349305000,0 -83.017169906,42.349363203,0 -83.017299800,42.349416004,0 -83.017410605,42.349486504,0 -83.017459605,42.349593501,0 -83.017463098,42.349612000,0 -83.017469104,42.349643396,0 -83.017453500,42.349700604,0 -83.017456601,42.349794496,0 -83.017463198,42.349869000,0 -83.017500406,42.349941002,0 -83.017689603,42.350231903,0 -83.018101205,42.350780598,0 -83.018139600,42.350824004,0 -83.018172596,42.350853502,0 -83.018210894,42.350880997,0 -83.018305298,42.350929802,0 -83.018357401,42.350957297,0 -83.018419097,42.350982597,0 -83.018496906,42.351009801,0 -83.018571898,42.351030598,0 -83.018662905,42.351047601,0 -83.018760598,42.351060704,0 -83.018843298,42.351067001,0 -83.018949806,42.351069898,0 -83.019069695,42.351069803,0 -83.019218305,42.351059701,0 -83.019342605,42.351047596,0 -83.019453396,42.351035603,0 -83.019520501,42.351034898,0 -83.019594306,42.351038298,0 -83.019676099,42.351048897,0 -83.019799599,42.351070199,0 -83.019926000,42.351092196,0 -83.020044401,42.351119197,0 -83.020199801,42.351157299,0 -83.020368596,42.351205403,0 -83.020661801,42.351291398,0 -83.020700202,42.351305003,0 -83.020713106,42.351316303,0</coordinates></LineString></Placemark><Placemark><name>path 59421289</name><description>OSM mapped geometry; not surveyed</description><styleUrl>#path</styleUrl><LineString><tessellate>1</tessellate><altitudeMode>clampToGround</altitudeMode><coordinates>-83.018372995,42.345321601,0 -83.018482801,42.345274604,0 -83.018750006,42.345159102,0 -83.018874895,42.345108497,0 -83.018896201,42.345099801,0 -83.018990301,42.345061598,0</coordinates></LineString></Placemark><Placemark><name>path 59427518</name><description>OSM mapped geometry; not surveyed</description><styleUrl>#path</styleUrl><LineString><tessellate>1</tessellate><altitudeMode>clampToGround</altitudeMode><coordinates>-83.018482801,42.345274604,0 -83.018516600,42.345324701,0 -83.018961096,42.345983304,0 -83.019005894,42.346042501,0 -83.019073001,42.346044300,0 -83.019291496,42.345965398,0 -83.019434199,42.345911102,0 -83.019528197,42.345875404,0</coordinates></LineString></Placemark><Placemark><name>building 313128810</name><description>mapped footprint; height estimated</description><styleUrl>#building</styleUrl><LineString><tessellate>1</tessellate><altitudeMode>clampToGround</altitudeMode><coordinates>-83.017816502,42.344934902,0 -83.017870098,42.345020997,0 -83.017525098,42.345138299,0 -83.017471502,42.345052203,0 -83.017816502,42.344934902,0</coordinates></LineString></Placemark><Placemark><name>building 313128816</name><description>mapped footprint; height estimated</description><styleUrl>#building</styleUrl><LineString><tessellate>1</tessellate><altitudeMode>clampToGround</altitudeMode><coordinates>-83.019201806,42.347928100,0 -83.019107404,42.347983904,0 -83.018794297,42.347694703,0 -83.018888698,42.347638898,0 -83.019201806,42.347928100,0</coordinates></LineString></Placemark><Placemark><name>Elmwood Chapel</name><description>mapped footprint; height estimated</description><styleUrl>#building</styleUrl><LineString><tessellate>1</tessellate><altitudeMode>clampToGround</altitudeMode><coordinates>-83.018471197,42.348052503,0 -83.018502795,42.347986404,0 -83.018478298,42.347980000,0 -83.018490998,42.347953498,0 -83.018603694,42.347982997,0 -83.018559396,42.348075598,0 -83.018471197,42.348052503,0</coordinates></LineString></Placemark><Placemark><name>path 313128831</name><description>OSM mapped geometry; not surveyed</description><styleUrl>#path</styleUrl><LineString><tessellate>1</tessellate><altitudeMode>clampToGround</altitudeMode><coordinates>-83.016496003,42.346964696,0 -83.016537496,42.346815401,0 -83.016621000,42.346685296,0 -83.016691801,42.346394097,0 -83.016685103,42.346220299,0 -83.016656899,42.346059604,0 -83.016645094,42.345970998,0 -83.016649302,42.345874402,0 -83.016666195,42.345831698,0 -83.016693798,42.345795901,0 -83.016732906,42.345758101,0 -83.016808503,42.345712202,0 -83.016947905,42.345655598,0 -83.017094097,42.345608997,0 -83.017248305,42.345575799,0 -83.017421304,42.345558499,0 -83.017698996,42.345547604,0 -83.017791505,42.345536699,0 -83.017838399,42.345527499,0 -83.017885399,42.345524303,0 -83.017922300,42.345529101,0 -83.017956501,42.345537901,0 -83.017986600,42.345553599,0 -83.018011398,42.345571300,0 -83.018046095,42.345603604,0 -83.018067500,42.345617700,0 -83.018091502,42.345629903,0 -83.018133105,42.345646200,0 -83.018177406,42.345656497,0 -83.018283299,42.345661701,0 -83.018354399,42.345664997,0 -83.018413400,42.345674900,0 -83.018456302,42.345690796,0 -83.018491204,42.345716604,0 -83.018523400,42.345751501,0 -83.018832606,42.346215399,0 -83.019385796,42.347078503,0 -83.019395205,42.347106201,0 -83.019397795,42.347135901,0 -83.019391494,42.347185200,0 -83.019394303,42.347216796,0 -83.019405202,42.347247404,0 -83.019507104,42.347376603,0 -83.019545600,42.347430400,0 -83.019631596,42.347572398,0 -83.019725698,42.347702897,0 -83.019782002,42.347843797,0 -83.019783304,42.347860596,0 -83.019777999,42.347880304,0 -83.019770002,42.347897096,0 -83.019754296,42.347915402,0 -83.019733203,42.347935703,0</coordinates></LineString></Placemark><Placemark><name>path 313128833</name><description>OSM mapped geometry; not surveyed</description><styleUrl>#path</styleUrl><LineString><tessellate>1</tessellate><altitudeMode>clampToGround</altitudeMode><coordinates>-83.018210894,42.350880997,0 -83.019094795,42.350573603,0 -83.020028505,42.350240901,0 -83.020266194,42.350154004,0 -83.020526698,42.349946300,0 -83.020674305,42.349820898,0 -83.020729598,42.349694097,0 -83.020683503,42.349580899,0 -83.020613394,42.349529101,0 -83.020454705,42.349505296,0 -83.020138105,42.349497098,0 -83.019776504,42.349503804,0 -83.018765694,42.349556500,0 -83.018294099,42.349498399,0 -83.018168600,42.349505201,0 -83.018116898,42.349526996,0</coordinates></LineString></Placemark><Placemark><name>path 313128837</name><description>OSM mapped geometry; not surveyed</description><styleUrl>#path</styleUrl><LineString><tessellate>1</tessellate><altitudeMode>clampToGround</altitudeMode><coordinates>-83.016347495,42.347067704,0 -83.016356697,42.347108697,0 -83.016386401,42.347143900,0 -83.016432106,42.347168104,0 -83.016486794,42.347177499,0 -83.016542203,42.347170697,0 -83.016589903,42.347148704,0 -83.016622599,42.347114997,0 -83.016635302,42.347074500,0 -83.016626103,42.347033597,0 -83.016596397,42.346998304,0 -83.016550704,42.346974100,0 -83.016496003,42.346964696,0 -83.016440594,42.346971498,0 -83.016392895,42.346993500,0 -83.016360201,42.347027297,0 -83.016347495,42.347067704,0</coordinates></LineString></Placemark><Placemark><name>path 313128843</name><description>OSM mapped geometry; not surveyed</description><styleUrl>#path</styleUrl><LineString><tessellate>1</tessellate><altitudeMode>clampToGround</altitudeMode><coordinates>-83.018443800,42.347895198,0 -83.018579505,42.347932001,0</coordinates></LineString></Placemark><Placemark><name>path 313128844</name><description>OSM mapped geometry; not surveyed</description><styleUrl>#path</styleUrl><LineString><tessellate>1</tessellate><altitudeMode>clampToGround</altitudeMode><coordinates>-83.019382006,42.347886804,0 -83.019306197,42.347987904,0 -83.018896601,42.347623702,0 -83.018819702,42.347608099,0 -83.018740700,42.347575701,0 -83.018687300,42.347545897,0</coordinates></LineString></Placemark><Placemark><name>path 313128847</name><description>OSM mapped geometry; not surveyed</description><styleUrl>#path</styleUrl><LineString><tessellate>1</tessellate><altitudeMode>clampToGround</altitudeMode><coordinates>-83.018750006,42.345159102,0 -83.018785198,42.345211399,0 -83.019291496,42.345965398,0</coordinates></LineString></Placemark><Placemark><name>path 313128850</name><description>OSM mapped geometry; not surveyed</description><styleUrl>#path</styleUrl><LineString><tessellate>1</tessellate><altitudeMode>clampToGround</altitudeMode><coordinates>-83.019451394,42.347846803,0 -83.019382006,42.347886804,0</coordinates></LineString></Placemark><Placemark><name>path 313128851</name><description>OSM mapped geometry; not surveyed</description><styleUrl>#path</styleUrl><LineString><tessellate>1</tessellate><altitudeMode>clampToGround</altitudeMode><coordinates>-83.019547196,42.347782797,0 -83.019451394,42.347846803,0</coordinates></LineString></Placemark><Placemark><name>path 313128854</name><description>OSM mapped geometry; not surveyed</description><styleUrl>#path</styleUrl><LineString><tessellate>1</tessellate><altitudeMode>clampToGround</altitudeMode><coordinates>-83.019631498,42.347250504,0 -83.019588399,42.347271697,0 -83.019550696,42.347301800,0 -83.019520801,42.347336503,0 -83.019507104,42.347376603,0</coordinates></LineString></Placemark><Placemark><name>path 313128856</name><description>OSM mapped geometry; not surveyed</description><styleUrl>#path</styleUrl><LineString><tessellate>1</tessellate><altitudeMode>clampToGround</altitudeMode><coordinates>-83.022430401,42.351890801,0 -83.022471400,42.351914204,0 -83.022509704,42.351945597,0 -83.022551599,42.351990498,0 -83.022611501,42.352051003,0 -83.022675494,42.352098603,0 -83.022755203,42.352142197,0</coordinates></LineString></Placemark><Placemark><name>path 313128861</name><description>OSM mapped geometry; not surveyed</description><styleUrl>#path</styleUrl><LineString><tessellate>1</tessellate><altitudeMode>clampToGround</altitudeMode><coordinates>-83.018840399,42.344833299,0 -83.018745500,42.344872299,0 -83.018659697,42.344907599,0 -83.018537200,42.344964700,0 -83.018472001,42.345009201,0 -83.018438602,42.345051602,0 -83.018428201,42.345097200,0 -83.018428504,42.345161297,0 -83.018445196,42.345223898,0 -83.018482801,42.345274604,0</coordinates></LineString></Placemark><Placemark><name>path 313128868</name><description>OSM mapped geometry; not surveyed</description><styleUrl>#path</styleUrl><LineString><tessellate>1</tessellate><altitudeMode>clampToGround</altitudeMode><coordinates>-83.018372995,42.345321601,0 -83.018288396,42.345334997,0 -83.018247998,42.345333601,0 -83.018214105,42.345327200,0 -83.018186805,42.345314001,0 -83.018159095,42.345291399,0 -83.018124998,42.345269503,0 -83.018084104,42.345254500,0 -83.018034195,42.345247598,0 -83.017969602,42.345247699,0 -83.017907405,42.345255900,0 -83.017855305,42.345268200,0 -83.017800400,42.345284998,0 -83.017746801,42.345304701,0 -83.017718195,42.345320100,0 -83.017671706,42.345355598,0 -83.017603706,42.345402904,0</coordinates></LineString></Placemark><Placemark><name>path 313128869</name><description>OSM mapped geometry; not surveyed</description><styleUrl>#path</styleUrl><LineString><tessellate>1</tessellate><altitudeMode>clampToGround</altitudeMode><coordinates>-83.018091502,42.345629903,0 -83.018124595,42.345609400,0 -83.018160402,42.345594802,0 -83.018195006,42.345568004,0 -83.018243299,42.345529699,0 -83.018261906,42.345503796,0 -83.018269699,42.345469996,0 -83.018277698,42.345438101,0 -83.018284400,42.345415001,0 -83.018299204,42.345388597,0 -83.018311299,42.345372399,0 -83.018372995,42.345321601,0</coordinates></LineString></Placemark><Placemark><name>Bloody Run Creek</name><description>OSM mapped geometry; not surveyed</description><styleUrl>#water</styleUrl><LineString><tessellate>1</tessellate><altitudeMode>clampToGround</altitudeMode><coordinates>-83.021351597,42.349465104,0 -83.021315798,42.349412197,0 -83.021273798,42.349362398,0 -83.021223002,42.349316600,0 -83.021169795,42.349267899,0 -83.021090900,42.349211304,0 -83.020998803,42.349142396,0 -83.020898702,42.349065803,0 -83.020773900,42.348988998,0 -83.020662796,42.348922901,0 -83.020575794,42.348853102,0 -83.020547798,42.348784901,0 -83.020511104,42.348689998,0 -83.020466704,42.348602400,0 -83.020412395,42.348495398,0 -83.020326601,42.348386700,0 -83.020231405,42.348264596,0 -83.020180101,42.348146402,0 -83.020138602,42.348052304,0 -83.020110605,42.348004897,0 -83.020061005,42.347953503,0 -83.020022502,42.347914296,0 -83.019993798,42.347900897,0 -83.019960594,42.347900897,0 -83.019930196,42.347919903,0 -83.019885903,42.347953104,0 -83.019841499,42.347979804,0 -83.019804097,42.347995800,0 -83.019756297,42.348013897,0 -83.019717698,42.348021701,0 -83.019659395,42.348017000,0 -83.019579398,42.347982000,0 -83.019490099,42.347914699,0 -83.019452096,42.347885398,0 -83.019389698,42.347823701,0 -83.019347600,42.347772301,0 -83.019316102,42.347739103,0 -83.019243703,42.347690397,0 -83.019174302,42.347651500,0 -83.019104796,42.347609696,0 -83.019013698,42.347573396,0 -83.018922698,42.347551900,0 -83.018842098,42.347545800,0 -83.018800099,42.347522098,0 -83.018668201,42.347454799,0 -83.018546702,42.347407796,0 -83.018418299,42.347315003,0 -83.018301597,42.347199004,0 -83.018186597,42.346998799,0 -83.018043001,42.346775296,0 -83.017966501,42.346648403,0 -83.017875405,42.346630303,0 -83.017819994,42.346600596,0 -83.017795402,42.346532803,0 -83.017744102,42.346430097,0 -83.017700902,42.346333903,0 -83.017710506,42.346284599,0</coordinates></LineString></Placemark><Placemark><name>path 624359679</name><description>OSM mapped geometry; not surveyed</description><styleUrl>#path</styleUrl><LineString><tessellate>1</tessellate><altitudeMode>clampToGround</altitudeMode><coordinates>-83.018445196,42.345223898,0 -83.018297595,42.345207802,0 -83.018215303,42.345191996,0 -83.018114697,42.345166499,0 -83.018045606,42.345144003,0 -83.017993694,42.345111696,0 -83.017951000,42.345070400,0 -83.017907300,42.345017001,0 -83.017784305,42.344817198,0 -83.017886997,42.344624102,0</coordinates></LineString></Placemark><Placemark><name>building 624359680</name><description>mapped footprint; height estimated</description><styleUrl>#building</styleUrl><LineString><tessellate>1</tessellate><altitudeMode>clampToGround</altitudeMode><coordinates>-83.018184502,42.345511400,0 -83.018100898,42.345379103,0 -83.018084798,42.345384699,0 -83.018051999,42.345332801,0 -83.017938401,42.345372102,0 -83.017984896,42.345445697,0 -83.018044800,42.345425001,0 -83.018114704,42.345535503,0 -83.018184502,42.345511400,0</coordinates></LineString></Placemark><Placemark><name>path 632089442</name><description>OSM mapped geometry; not surveyed</description><styleUrl>#path</styleUrl><LineString><tessellate>1</tessellate><altitudeMode>clampToGround</altitudeMode><coordinates>-83.018755098,42.347443696,0 -83.018769005,42.347427196,0 -83.018781898,42.347416603,0 -83.018797596,42.347407897,0 -83.018830200,42.347393698,0</coordinates></LineString></Placemark><Placemark><name>path 632089443</name><description>OSM mapped geometry; not surveyed</description><styleUrl>#path</styleUrl><LineString><tessellate>1</tessellate><altitudeMode>clampToGround</altitudeMode><coordinates>-83.018711504,42.347506701,0 -83.018755098,42.347443696,0</coordinates></LineString></Placemark><Placemark><name>path 739656967</name><description>OSM mapped geometry; not surveyed</description><styleUrl>#path</styleUrl><LineString><tessellate>1</tessellate><altitudeMode>clampToGround</altitudeMode><coordinates>-83.019799295,42.348022901,0 -83.020124996,42.348471601,0 -83.020522396,42.349044700,0 -83.020873795,42.349345596,0 -83.021251503,42.349597504,0 -83.021365600,42.349639502,0 -83.021571103,42.349838602,0 -83.021744697,42.350042903,0 -83.021870605,42.350267704,0 -83.022066904,42.350604499,0 -83.022137303,42.350714503,0 -83.022159501,42.350778996,0 -83.022170901,42.350851299,0 -83.022185005,42.350921600,0 -83.022228695,42.351003204,0 -83.022434395,42.351435003,0 -83.022455900,42.351502499,0 -83.022467301,42.351571397,0 -83.022470502,42.351630697,0 -83.022470298,42.351711399,0 -83.022459404,42.351780196,0 -83.022444401,42.351845400,0 -83.022430401,42.351890801,0 -83.022403401,42.351949904,0 -83.022319902,42.352109903,0 -83.022258701,42.352209198,0 -83.022238399,42.352241300,0 -83.022214097,42.352274401,0 -83.022189600,42.352302904,0 -83.022156705,42.352332302,0 -83.022117703,42.352361304,0 -83.022069195,42.352391500,0 -83.022017599,42.352420003,0 -83.021915098,42.352463400,0 -83.021771195,42.352531796,0 -83.020489798,42.352983203,0 -83.020404005,42.352975196,0 -83.020178700,42.352784998,0 -83.020007002,42.352650203,0 -83.019760196,42.352523296,0 -83.019707605,42.352388500,0 -83.019704306,42.352256698,0</coordinates></LineString></Placemark><Placemark><name>path 739656968</name><description>OSM mapped geometry; not surveyed</description><styleUrl>#path</styleUrl><LineString><tessellate>1</tessellate><altitudeMode>clampToGround</altitudeMode><coordinates>-83.019769905,42.347980499,0 -83.019799295,42.348022901,0</coordinates></LineString></Placemark><Placemark><name>path 739661795</name><description>OSM mapped geometry; not surveyed</description><styleUrl>#path</styleUrl><LineString><tessellate>1</tessellate><altitudeMode>clampToGround</altitudeMode><coordinates>-83.017359400,42.345054401,0 -83.017742506,42.344906297,0</coordinates></LineString></Placemark><Placemark><name>path 739661796</name><description>OSM mapped geometry; not surveyed</description><styleUrl>#path</styleUrl><LineString><tessellate>1</tessellate><altitudeMode>clampToGround</altitudeMode><coordinates>-83.017698996,42.345547604,0 -83.017603706,42.345402904,0 -83.017572705,42.345374200,0 -83.017547097,42.345335701,0 -83.017535200,42.345298898,0 -83.017517898,42.345260100,0 -83.017482903,42.345203296,0 -83.017407698,42.345098597,0 -83.017384906,42.345074503,0 -83.017359400,42.345054401,0 -83.017327902,42.345036701,0 -83.017293800,42.345023001,0 -83.017217501,42.345000596,0 -83.017129500,42.344988096,0 -83.017041499,42.344999497,0 -83.016972100,42.345022403,0 -83.016905300,42.345055603,0 -83.016843803,42.345094797,0 -83.016599300,42.345283299,0 -83.016321798,42.345405299,0 -83.015880995,42.345518004,0 -83.015629497,42.345581198,0 -83.015541905,42.345699298,0 -83.015553104,42.345774703,0 -83.015640795,42.345848501,0 -83.015767996,42.345977602,0 -83.015944502,42.346244702,0 -83.016440594,42.346971498,0</coordinates></LineString></Placemark><Placemark><name>path 890897027</name><description>OSM mapped geometry; not surveyed</description><styleUrl>#path</styleUrl><LineString><tessellate>1</tessellate><altitudeMode>clampToGround</altitudeMode><coordinates>-83.018929895,42.345150404,0 -83.018785198,42.345211399,0 -83.018516600,42.345324701,0 -83.018350102,42.345394896,0</coordinates></LineString></Placemark><Placemark><name>path 890897028</name><description>OSM mapped geometry; not surveyed</description><styleUrl>#path</styleUrl><LineString><tessellate>1</tessellate><altitudeMode>clampToGround</altitudeMode><coordinates>-83.018861702,42.345047897,0 -83.018445196,42.345223898,0</coordinates></LineString></Placemark><Placemark><name>path 1010035596</name><description>OSM mapped geometry; not surveyed</description><styleUrl>#path</styleUrl><LineString><tessellate>1</tessellate><altitudeMode>clampToGround</altitudeMode><coordinates>-83.017566300,42.349580303,0 -83.017463098,42.349612000,0</coordinates></LineString></Placemark><Placemark><name>path 1023812416</name><description>OSM mapped geometry; not surveyed</description><styleUrl>#path</styleUrl><LineString><tessellate>1</tessellate><altitudeMode>clampToGround</altitudeMode><coordinates>-83.019468697,42.349251200,0 -83.018760704,42.349251200,0 -83.018744598,42.349253600,0 -83.018722805,42.349257000,0 -83.017998597,42.349366798,0</coordinates></LineString></Placemark><Placemark><name>path 1023812417</name><description>OSM mapped geometry; not surveyed</description><styleUrl>#path</styleUrl><LineString><tessellate>1</tessellate><altitudeMode>clampToGround</altitudeMode><coordinates>-83.018765694,42.349556500,0 -83.018744598,42.349253600,0 -83.018689799,42.349069401,0</coordinates></LineString></Placemark><Placemark><name>Bloody Run Creek</name><description>OSM mapped geometry; not surveyed</description><styleUrl>#water</styleUrl><LineString><tessellate>1</tessellate><altitudeMode>clampToGround</altitudeMode><coordinates>-83.017768902,42.346236499,0 -83.017800095,42.346209698,0 -83.017866695,42.346169099,0 -83.017909901,42.346124698,0 -83.017935502,42.346076796,0 -83.017943706,42.346019800,0 -83.017934400,42.345955096,0 -83.017897002,42.345899497,0 -83.017836902,42.345872700,0 -83.017765094,42.345850703,0 -83.017692098,42.345838597,0 -83.017619202,42.345830397,0</coordinates></LineString></Placemark><Placemark><name>Bloody Run Creek</name><description>OSM mapped geometry; not surveyed</description><styleUrl>#water</styleUrl><LineString><tessellate>1</tessellate><altitudeMode>clampToGround</altitudeMode><coordinates>-83.017710506,42.346284599,0 -83.017768902,42.346236499,0</coordinates></LineString></Placemark><Placemark><name>building 1416751635</name><description>mapped footprint; height estimated</description><styleUrl>#building</styleUrl><LineString><tessellate>1</tessellate><altitudeMode>clampToGround</altitudeMode><coordinates>-83.019318297,42.348103403,0 -83.019346895,42.348048299,0 -83.019271094,42.348026796,0 -83.019242398,42.348081902,0 -83.019318297,42.348103403,0</coordinates></LineString></Placemark></Document></kml>